IRIDIUM 155             
1 43573U 18061E   25073.54585996  .00000007  00000+0 -44223-5 0  9993
2 43573  86.3923 248.7083 0002020  83.5579 276.5847 14.34217314347472
IRIDIUM 154             
1 43574U 18061F   25073.52683144  .00000189  00000+0  60265-4 0  9999
2 43574  86.3923 248.8270 0002065  93.3411 266.8021 14.34217791347526
IRIDIUM 163             
1 43575U 18061G   25073.85664694  .00000088  00000+0  24528-4 0  9995
2 43575  86.3921 248.6188 0002228  92.8433 267.3018 14.34218341347546
IRIDIUM 156             
1 43576U 18061H   25073.55220276 -.00000001  00000+0 -75475-5 0  9992
2 43576  86.3925 248.7532 0001892  80.0562 280.0847 14.34217344347491
IRIDIUM 164             
1 43577U 18061J   25073.53317568 -.00000040  00000+0 -21290-4 0  9990
2 43577  86.3925 248.7941 0001796  96.5480 263.5920 14.34217052347539
IRIDIUM 159             
1 43578U 18061K   25073.57123121 -.00000004  00000+0 -85688-5 0  9997
2 43578  86.3926 248.7247 0002035  97.9664 262.1763 14.34217391347509
IRIDIUM 180             
1 43922U 19002A   25073.36142306  .00000256  00000+0  84520-4 0  9999
2 43922  86.4041 185.7551 0002296  96.4895 263.6562 14.34218053323084
IRIDIUM 176             
1 43923U 19002B   25073.83324885  .00000303  00000+0  44215-4 0  9996
2 43923  86.6171 185.5601 0002827 100.7589 259.3946 14.72244997331663
IRIDIUM 168             
1 43924U 19002C   25073.56438522  .00001049  00000+0  36757-3 0  9990
2 43924  86.4047 185.7350 0002287  98.4937 261.6518 14.34220616323096
IRIDIUM 173             
1 43925U 19002D   25073.41216002  .00000039  00000+0  67265-5 0  9990
2 43925  86.4042 185.7062 0002264  93.7442 266.4013 14.34216122323052
IRIDIUM 169             
1 43926U 19002E   25073.62797828  .00000964  00000+0  30857-3 0  9996
2 43926  86.4248 217.1881 0003347  71.4741 288.6821 14.38620021324154
IRIDIUM 172             
1 43927U 19002F   25073.54535664  .00000823  00000+0  28677-3 0  9997
2 43927  86.4043 185.6572 0002261 100.5972 259.5478 14.34218909323088
IRIDIUM 175             
1 43928U 19002G   25073.62410916  .00002537  00000+0  39826-3 0  9991
2 43928  86.1532 143.5763 0002153  66.1340 294.0102 14.72251905331622
IRIDIUM 171             
1 43929U 19002H   25073.38679061  .00000594  00000+0  20497-3 0  9998
2 43929  86.4052 185.9783 0001651  98.6398 261.4985 14.34220560323056
IRIDIUM 170             
1 43930U 19002J   25073.56753249  .00002319  00000+0  36374-3 0  9999
2 43930  86.6167 185.6748 0002206  85.6414 274.5055 14.72261579331630
IRIDIUM 167             
1 43931U 19002K   25073.38044943  .00000617  00000+0  21335-3 0  9994
2 43931  86.4043 185.7444 0001978  85.5563 274.5858 14.34222113323052
IRIDIUM 181             
1 56726U 23068S   25073.59124662  .00000349  00000+0  97546-4 0  9997
2 56726  86.4461 248.7356 0001655  86.4075 273.7315 14.43313965 96146
IRIDIUM 177             
1 56727U 23068T   25073.83446619  .00000222  00000+0  25685-4 0  9999
2 56727  86.2038 186.8744 0002106  88.4887 271.6575 14.80226379 98413
IRIDIUM 174             
1 56728U 23068U   25073.82904383  .00004339  00000+0  56737-3 0  9990
2 56728  86.2043 187.0017 0002018 104.9915 255.1529 14.80231419 98411
IRIDIUM 178             
1 56729U 23068V   25073.41800108  .00000228  00000+0  26512-4 0  9998
2 56729  86.5800 217.4156 0001629 120.6093 239.5290 14.80229973 98353
IRIDIUM 179             
1 56730U 23068W   25073.88577682  .00003935  00000+0  51421-3 0  9993
2 56730  86.6788 224.7504 0002088  96.5831 263.5628 14.80248268 98428
